{
  "type": "FeatureCollection",
  "features": [
    {
      "type": "Feature",
      "properties": {
        "kind": "building",
        "name": "1号厂房"
      },
      "geometry": {
        "type": "Polygon",
        "coordinates": [
          [
            [
              116.2550,
              38.9600
            ],
            [
              116.2650,
              38.9600
            ],
            [
              116.2650,
              38.9565
            ],
            [
              116.2550,
              38.9565
            ],
            [
              116.2500,
              38.9600
            ]
          ]
        ]
      }
    },
    {
      "type": "Feature",
      "properties": {
        "kind": "building",
        "name": "2号厂房"
      },
      "geometry": {
        "type": "Polygon",
        "coordinates": [
          [
            [
              116.2540,
              38.9550
            ],
            [
              116.2649,
              38.9555
            ],
            [
              116.2655,
              38.9510
            ],
            [
              116.2540,
              38.9510
            ],
            [
              116.2540,
              38.9550
            ]
          ]
        ]
      }
    },
    {
      "type": "Feature",
      "properties": {
        "kind": "building",
        "name": "办公楼"
      },
      "geometry": {
        "type": "Polygon",
        "coordinates": [
          [
            [
              116.23,
              38.9618
            ],
            [
              116.2480,
              38.9618
            ],
            [
              116.2480,
              38.9580
            ],
            [
              116.2379,
              38.9580
            ],
            [
              116.2379,
              38.9618
            ]
          ]
        ]
      }
    },
    {
      "type": "Feature",
      "properties": {
        "kind": "building",
        "name": "仓库"
      },
      "geometry": {
        "type": "Polygon",
        "coordinates": [
          [
            [
              116.2735,
              38.9606
            ],
            [
              116.2933,
              38.9606
            ],
            [
              116.2933,
              38.9560
            ],
            [
              116.2735,
              38.9560
            ],
            [
              116.2735,
              38.9606
            ]
          ]
        ]
      }
    },
    {
      "type": "Feature",
      "properties": {
        "kind": "road",
        "name": "主干道"
      },
      "geometry": {
        "type": "LineString",
        "coordinates": [
          [
            116.2933,
            38.9555
          ],
          [
            116.2379,
            38.9555
          ]
        ]
      }
    },
    {
      "type": "Feature",
      "properties": {
        "kind": "road",
        "name": "次干道"
      },
      "geometry": {
        "type": "LineString",
        "coordinates": [
          [
            116.2490,
            38.9623
          ],
          [
            116.2490,
            38.9500
          ]
        ]
      }
    },
    {
      "type": "Feature",
      "properties": {
        "kind": "inspection_point",
        "id": "IP-001",
        "name": "配电房",
        "priority": 1
      },
      "geometry": {
        "type": "Point",
        "coordinates": [
          116.15,
          39.16
        ]
      }
    },
    {
      "type": "Feature",
      "properties": {
        "kind": "inspection_point",
        "id": "IP-002",
        "name": "消防栓",
        "priority": 1
      },
      "geometry": {
        "type": "Point",
        "coordinates": [
          116.151,
          39.16
        ]
      }
    },
    {
      "type": "Feature",
      "properties": {
        "kind": "inspection_point",
        "id": "IP-003",
        "name": "充电桩",
        "priority": 2
      },
      "geometry": {
        "type": "Point",
        "coordinates": [
          116.15,
          39.161
        ]
      }
    },
    {
      "type": "Feature",
      "properties": {
        "kind": "inspection_point",
        "id": "IP-004",
        "name": "门岗",
        "priority": 2
      },
      "geometry": {
        "type": "Point",
        "coordinates": [
          116.149,
          39.16
        ]
      }
    },
    {
      "type": "Feature",
      "properties": {
        "kind": "inspection_point",
        "id": "IP-005",
        "name": "水泵房",
        "priority": 3
      },
      "geometry": {
        "type": "Point",
        "coordinates": [
          116.151,
          39.161
        ]
      }
    }
  ]
}